{
  "type": "FeatureCollection",
  "features": [
    {
      "type": "Feature",
      "properties": {
        "name": "Approximate 60-mile drive isochrone from Newbury",
        "distance_miles": 60,
        "distance_km": 96.56,
        "note": "Derived from offline route analysis"
      },
      "geometry": {
        "type": "Polygon",
        "coordinates": [
          [
            [
              -1.3239,
              52.27319840550553
            ],
            [
              -1.2007117064802448,
              52.26534105958209
            ],
            [
              -1.0798115522335345,
              52.25085397616079
            ],
            [
              -0.9621547853078863,
              52.22992341741093
            ],
            [
              -0.8486566174236485,
              52.202786109000435
            ],
            [
              -0.7448956466856398,
              52.16364062876297
            ],
            [
              -0.6486767274874049,
              52.119462583513815
            ],
            [
              -0.5606090678107795,
              52.07075779546652
            ],
            [
              -0.4812089937971934,
              52.01805851950033
            ],
            [
              -0.4030858365375436,
              51.96662383288379
            ],
            [
              -0.3331180386551287,
              51.9114294734048
            ],
            [
              -0.2717409947101772,
              51.85295558875317
            ],
            [
              -0.2193113715602948,
              51.791701446918005
            ],
            [
              -0.1794088532873388,
              51.7272633927563
            ],
            [
              -0.14915099588650027,
              51.661449410412665
            ],
            [
              -0.12857489943773848,
              51.59480540195937
            ],
            [
              -0.11763766651860341,
              51.52787275684356
            ],
            [
              -0.11263119646309971,
              51.46134287548097
            ],
            [
              -0.11694346465040106,
              51.39518490691024
            ],
            [
              -0.130392711792797,
              51.32990313561568
            ],
            [
              -0.15273032864841785,
              51.265987160518605
            ],
            [
              -0.18020427453554122,
              51.20329309670986
            ],
            [
              -0.21608850077235764,
              51.14251630476396
            ],
            [
              -0.2600310393500982,
              51.08410096463583
            ],
            [
              -0.3116254501165432,
              51.02846924027678
            ],
            [
              -0.3559714473965847,
              50.96945396070554
            ],
            [
              -0.40894331024289754,
              50.91246362426166
            ],
            [
              -0.47028467214360803,
              50.85800491728789
            ],
            [
              -0.539668749909462,
              50.80657284056326
            ],
            [
              -0.6126923346555448,
              50.75494009658888
            ],
            [
              -0.693944776272956,
              50.70686233349786
            ],
            [
              -0.7829743504675285,
              50.66286253021013
            ],
            [
              -0.8792540770551391,
              50.62344083300313
            ],
            [
              -0.9875738748259939,
              50.602110603583235
            ],
            [
              -1.098324452054527,
              50.586763619013055
            ],
            [
              -1.210703796567523,
              50.57751084940056
            ],
            [
              -1.3239,
              50.57441914941519
            ],
            [
              -1.4377005677509738,
              50.57303257499182
            ],
            [
              -1.5518845265299164,
              50.57790588064422
            ],
            [
              -1.6656149502470465,
              50.58906986426818
            ],
            [
              -1.778048581872524,
              50.60650892615017
            ],
            [
              -1.888341076091685,
              50.630160649101256
            ],
            [
              -1.9956523365542682,
              50.65991567369713
            ],
            [
              -2.0991519419825835,
              50.69561787435988
            ],
            [
              -2.198024654093529,
              50.73706484154994
            ],
            [
              -2.286528671920179,
              50.787228234706596
            ],
            [
              -2.367994021239074,
              50.84203280582034
            ],
            [
              -2.4417984633996266,
              50.901076936857855
            ],
            [
              -2.5073696209185106,
              50.96392641706005
            ],
            [
              -2.5673934124756927,
              51.029133310024726
            ],
            [
              -2.618462655452238,
              51.09754784148263
            ],
            [
              -2.660108427807934,
              51.168675049137256
            ],
            [
              -2.691924854251263,
              51.24199480368687
            ],
            [
              -2.710007876113538,
              51.31720348452679
            ],
            [
              -2.717605444127904,
              51.393112554043284
            ],
            [
              -2.7146078547983286,
              51.46914646003763
            ],
            [
              -2.7009852383797823,
              51.544725864218556
            ],
            [
              -2.6732861240612964,
              51.618730639484006
            ],
            [
              -2.6353169655732294,
              51.69075049871938
            ],
            [
              -2.587376847738195,
              51.76023747097774
            ],
            [
              -2.5298455343608075,
              51.826663585225944
            ],
            [
              -2.4631813186186133,
              51.88952517654582
            ],
            [
              -2.387918056885523,
              51.94834704158411
            ],
            [
              -2.3046613783660894,
              52.00268639865629
            ],
            [
              -2.2140840775864534,
              52.05213660790409
            ],
            [
              -2.123295803094723,
              52.101809505648625
            ],
            [
              -2.0250968332342874,
              52.14655385455229
            ],
            [
              -1.920186101852285,
              52.18595468044797
            ],
            [
              -1.8093315967411687,
              52.2196353442621
            ],
            [
              -1.6914341118240048,
              52.242926962524734
            ],
            [
              -1.5705799206749826,
              52.25969911003646
            ],
            [
              -1.447738996525984,
              52.269816766321014
            ],
            [
              -1.3239,
              52.27319840550553
            ]
          ]
        ]
      }
    }
  ]
}
